CCSDS_OMM_VERS = 2.0
CREATION_DATE  = 
ORIGINATOR     = 

OBJECT_NAME    = SOYUZ-MS 28
OBJECT_ID      = 2025-275A
CENTER_NAME    = EARTH
REF_FRAME      = TEME
TIME_SYSTEM    = UTC
MEAN_ELEMENT_THEORY = SGP/SGP4

EPOCH          = 2026-01-08T12:00:03.881088
MEAN_MOTION    = 15.49175445
ECCENTRICITY   = .0007637
INCLINATION    = 51.6332
RA_OF_ASC_NODE = 9.9851
ARG_OF_PERICENTER = 355.2000
MEAN_ANOMALY   = 4.8914

EPHEMERIS_TYPE = 0
CLASSIFICATION_TYPE = U
NORAD_CAT_ID   = 66664
ELEMENT_SET_NO = 999
REV_AT_EPOCH   = 128
BSTAR          = .18407097E-3
MEAN_MOTION_DOT = .9772E-4
MEAN_MOTION_DDOT = 0

CCSDS_OMM_VERS = 2.0
CREATION_DATE  = 
ORIGINATOR     = 

OBJECT_NAME    = 1998-067XS
OBJECT_ID      = 1998-067XS
CENTER_NAME    = EARTH
REF_FRAME      = TEME
TIME_SYSTEM    = UTC
MEAN_ELEMENT_THEORY = SGP/SGP4

EPOCH          = 2026-01-09T04:06:08.739072
MEAN_MOTION    = 15.52207640
ECCENTRICITY   = .0002337
INCLINATION    = 51.6321
RA_OF_ASC_NODE = 6.2168
ARG_OF_PERICENTER = 347.4296
MEAN_ANOMALY   = 12.6635

EPHEMERIS_TYPE = 0
CLASSIFICATION_TYPE = U
NORAD_CAT_ID   = 66906
ELEMENT_SET_NO = 999
REV_AT_EPOCH   = 587
BSTAR          = .41392E-3
MEAN_MOTION_DOT = .25172E-3
MEAN_MOTION_DDOT = 0

CCSDS_OMM_VERS = 2.0
CREATION_DATE  = 
ORIGINATOR     = 

OBJECT_NAME    = 1998-067XT
OBJECT_ID      = 1998-067XT
CENTER_NAME    = EARTH
REF_FRAME      = TEME
TIME_SYSTEM    = UTC
MEAN_ELEMENT_THEORY = SGP/SGP4

EPOCH          = 2026-01-09T04:44:17.467296
MEAN_MOTION    = 15.55586416
ECCENTRICITY   = .000374
INCLINATION    = 51.6317
RA_OF_ASC_NODE = 5.6441
ARG_OF_PERICENTER = 32.9383
MEAN_ANOMALY   = 327.1841

EPHEMERIS_TYPE = 0
CLASSIFICATION_TYPE = U
NORAD_CAT_ID   = 66907
ELEMENT_SET_NO = 999
REV_AT_EPOCH   = 588
BSTAR          = .93017E-3
MEAN_MOTION_DOT = .65015E-3
MEAN_MOTION_DDOT = 0

CCSDS_OMM_VERS = 2.0
CREATION_DATE  = 
ORIGINATOR     = 

OBJECT_NAME    = 1998-067XU
OBJECT_ID      = 1998-067XU
CENTER_NAME    = EARTH
REF_FRAME      = TEME
TIME_SYSTEM    = UTC
MEAN_ELEMENT_THEORY = SGP/SGP4

EPOCH          = 2026-01-09T04:42:48.542688
MEAN_MOTION    = 15.55568087
ECCENTRICITY   = .0003695
INCLINATION    = 51.6310
RA_OF_ASC_NODE = 5.6360
ARG_OF_PERICENTER = 27.8499
MEAN_ANOMALY   = 332.2690

EPHEMERIS_TYPE = 0
CLASSIFICATION_TYPE = U
NORAD_CAT_ID   = 66908
ELEMENT_SET_NO = 999
REV_AT_EPOCH   = 588
BSTAR          = .8901E-3
MEAN_MOTION_DOT = .62128E-3
MEAN_MOTION_DDOT = 0

CCSDS_OMM_VERS = 2.0
CREATION_DATE  = 
ORIGINATOR     = 

OBJECT_NAME    = SILVERSAT
OBJECT_ID      = 1998-067XV
CENTER_NAME    = EARTH
REF_FRAME      = TEME
TIME_SYSTEM    = UTC
MEAN_ELEMENT_THEORY = SGP/SGP4

EPOCH          = 2026-01-09T04:34:03.488160
MEAN_MOTION    = 15.56179247
ECCENTRICITY   = .0003923
INCLINATION    = 51.6316
RA_OF_ASC_NODE = 5.5959
ARG_OF_PERICENTER = 37.4652
MEAN_ANOMALY   = 322.6612

EPHEMERIS_TYPE = 0
CLASSIFICATION_TYPE = U
NORAD_CAT_ID   = 66909
ELEMENT_SET_NO = 999
REV_AT_EPOCH   = 588
BSTAR          = .10107E-2
MEAN_MOTION_DOT = .72326E-3
MEAN_MOTION_DDOT = 0

CCSDS_OMM_VERS = 2.0
CREATION_DATE  = 
ORIGINATOR     = 

OBJECT_NAME    = 1998-067XW
OBJECT_ID      = 1998-067XW
CENTER_NAME    = EARTH
REF_FRAME      = TEME
TIME_SYSTEM    = UTC
MEAN_ELEMENT_THEORY = SGP/SGP4

EPOCH          = 2026-01-09T03:01:57.099648
MEAN_MOTION    = 15.55872356
ECCENTRICITY   = .0002861
INCLINATION    = 51.6300
RA_OF_ASC_NODE = 5.9176
ARG_OF_PERICENTER = 11.3247
MEAN_ANOMALY   = 348.7808

EPHEMERIS_TYPE = 0
CLASSIFICATION_TYPE = U
NORAD_CAT_ID   = 66910
ELEMENT_SET_NO = 999
REV_AT_EPOCH   = 587
BSTAR          = .1008E-2
MEAN_MOTION_DOT = .71295E-3
MEAN_MOTION_DDOT = 0

CCSDS_OMM_VERS = 2.0
CREATION_DATE  = 
ORIGINATOR     = 

OBJECT_NAME    = 1998-067XX
OBJECT_ID      = 1998-067XX
CENTER_NAME    = EARTH
REF_FRAME      = TEME
TIME_SYSTEM    = UTC
MEAN_ELEMENT_THEORY = SGP/SGP4

EPOCH          = 2026-01-09T04:18:08.165088
MEAN_MOTION    = 15.56871346
ECCENTRICITY   = .00029
INCLINATION    = 51.6306
RA_OF_ASC_NODE = 5.5213
ARG_OF_PERICENTER = 28.0910
MEAN_ANOMALY   = 332.0238

EPHEMERIS_TYPE = 0
CLASSIFICATION_TYPE = U
NORAD_CAT_ID   = 66911
ELEMENT_SET_NO = 999
REV_AT_EPOCH   = 587
BSTAR          = .10958E-2
MEAN_MOTION_DOT = .80589E-3
MEAN_MOTION_DDOT = 0

CCSDS_OMM_VERS = 2.0
CREATION_DATE  = 
ORIGINATOR     = 

OBJECT_NAME    = 1998-067XY
OBJECT_ID      = 1998-067XY
CENTER_NAME    = EARTH
REF_FRAME      = TEME
TIME_SYSTEM    = UTC
MEAN_ELEMENT_THEORY = SGP/SGP4

EPOCH          = 2026-01-08T16:43:31.656288
MEAN_MOTION    = 15.54289718
ECCENTRICITY   = .0003647
INCLINATION    = 51.6311
RA_OF_ASC_NODE = 8.3012
ARG_OF_PERICENTER = 15.0558
MEAN_ANOMALY   = 345.0541

EPHEMERIS_TYPE = 0
CLASSIFICATION_TYPE = U
NORAD_CAT_ID   = 66912
ELEMENT_SET_NO = 999
REV_AT_EPOCH   = 579
BSTAR          = .98925E-3
MEAN_MOTION_DOT = .65951E-3
MEAN_MOTION_DDOT = 0

