SOYUZ-MS 28             
1 66664U 25275A   26008.50004492  .00009772  00000+0  18407-3 0  9996
2 66664  51.6332   9.9851 0007637 355.2000   4.8914 15.49175445  1282
1998-067XS              
1 66906U 98067XS  26009.17093448  .00025172  00000+0  41392-3 0  9998
2 66906  51.6321   6.2168 0002337 347.4296  12.6635 15.52207640  5875
1998-067XT              
1 66907U 98067XT  26009.19742439  .00065015  00000+0  93017-3 0  9993
2 66907  51.6317   5.6441 0003740  32.9383 327.1841 15.55586416  5888
1998-067XU              
1 66908U 98067XU  26009.19639517  .00062128  00000+0  89010-3 0  9996
2 66908  51.6310   5.6360 0003695  27.8499 332.2690 15.55568087  5885
SILVERSAT               
1 66909U 98067XV  26009.19031815  .00072326  00000+0  10107-2 0  9995
2 66909  51.6316   5.5959 0003923  37.4652 322.6612 15.56179247  5881
1998-067XW              
1 66910U 98067XW  26009.12635532  .00071295  00000+0  10080-2 0  9990
2 66910  51.6300   5.9176 0002861  11.3247 348.7808 15.55872356  5877
1998-067XX              
1 66911U 98067XX  26009.17926117  .00080589  00000+0  10958-2 0  9998
2 66911  51.6306   5.5213 0002900  28.0910 332.0238 15.56871346  5870
1998-067XY              
1 66912U 98067XY  26008.69689417  .00065951  00000+0  98925-3 0  9991
2 66912  51.6311   8.3012 0003647  15.0558 345.0541 15.54289718  5794
